<?xml version="1.0" encoding="UTF-8"?>
<ndm xmlns:xsi="http://www.w3.org/2001/XMLSchema-instance" xsi:noNamespaceSchemaLocation="https://sanaregistry.org/r/ndmxml_unqualified/ndmxml-2.0.0-master-2.0.xsd">
<omm id="CCSDS_OMM_VERS" version="2.0">
<header><CREATION_DATE/><ORIGINATOR/></header><body><segment><metadata><OBJECT_NAME>ORBCOMM FM05</OBJECT_NAME><OBJECT_ID>1997-084F</OBJECT_ID><CENTER_NAME>EARTH</CENTER_NAME><REF_FRAME>TEME</REF_FRAME><TIME_SYSTEM>UTC</TIME_SYSTEM><MEAN_ELEMENT_THEORY>SGP4</MEAN_ELEMENT_THEORY></metadata><data><meanElements><EPOCH>2024-06-28T13:25:38.077536</EPOCH><MEAN_MOTION>14.42990927</MEAN_MOTION><ECCENTRICITY>.0004713</ECCENTRICITY><INCLINATION>45.0160</INCLINATION><RA_OF_ASC_NODE>262.3384</RA_OF_ASC_NODE><ARG_OF_PERICENTER>251.6677</ARG_OF_PERICENTER><MEAN_ANOMALY>108.3661</MEAN_ANOMALY></meanElements><tleParameters><EPHEMERIS_TYPE>0</EPHEMERIS_TYPE><CLASSIFICATION_TYPE>U</CLASSIFICATION_TYPE><NORAD_CAT_ID>25117</NORAD_CAT_ID><ELEMENT_SET_NO>999</ELEMENT_SET_NO><REV_AT_EPOCH>38947</REV_AT_EPOCH><BSTAR>.71819E-3</BSTAR><MEAN_MOTION_DOT>.2284E-4</MEAN_MOTION_DOT><MEAN_MOTION_DDOT>0</MEAN_MOTION_DDOT></tleParameters></data></segment></body></omm>
<omm id="CCSDS_OMM_VERS" version="2.0">
<header><CREATION_DATE/><ORIGINATOR/></header><body><segment><metadata><OBJECT_NAME>ORBCOMM FM06</OBJECT_NAME><OBJECT_ID>1997-084G</OBJECT_ID><CENTER_NAME>EARTH</CENTER_NAME><REF_FRAME>TEME</REF_FRAME><TIME_SYSTEM>UTC</TIME_SYSTEM><MEAN_ELEMENT_THEORY>SGP4</MEAN_ELEMENT_THEORY></metadata><data><meanElements><EPOCH>2024-06-28T12:27:32.894208</EPOCH><MEAN_MOTION>14.43066098</MEAN_MOTION><ECCENTRICITY>.0004019</ECCENTRICITY><INCLINATION>45.0143</INCLINATION><RA_OF_ASC_NODE>262.6736</RA_OF_ASC_NODE><ARG_OF_PERICENTER>258.6979</ARG_OF_PERICENTER><MEAN_ANOMALY>115.8002</MEAN_ANOMALY></meanElements><tleParameters><EPHEMERIS_TYPE>0</EPHEMERIS_TYPE><CLASSIFICATION_TYPE>U</CLASSIFICATION_TYPE><NORAD_CAT_ID>25118</NORAD_CAT_ID><ELEMENT_SET_NO>999</ELEMENT_SET_NO><REV_AT_EPOCH>39038</REV_AT_EPOCH><BSTAR>.96988E-3</BSTAR><MEAN_MOTION_DOT>.3141E-4</MEAN_MOTION_DOT><MEAN_MOTION_DDOT>0</MEAN_MOTION_DDOT></tleParameters></data></segment></body></omm>
<omm id="CCSDS_OMM_VERS" version="2.0">
<header><CREATION_DATE/><ORIGINATOR/></header><body><segment><metadata><OBJECT_NAME>ORBCOMM FM07</OBJECT_NAME><OBJECT_ID>1997-084H</OBJECT_ID><CENTER_NAME>EARTH</CENTER_NAME><REF_FRAME>TEME</REF_FRAME><TIME_SYSTEM>UTC</TIME_SYSTEM><MEAN_ELEMENT_THEORY>SGP4</MEAN_ELEMENT_THEORY></metadata><data><meanElements><EPOCH>2024-06-28T12:15:16.291008</EPOCH><MEAN_MOTION>14.42967799</MEAN_MOTION><ECCENTRICITY>.000542</ECCENTRICITY><INCLINATION>45.0139</INCLINATION><RA_OF_ASC_NODE>263.2819</RA_OF_ASC_NODE><ARG_OF_PERICENTER>244.6863</ARG_OF_PERICENTER><MEAN_ANOMALY>115.3426</MEAN_ANOMALY></meanElements><tleParameters><EPHEMERIS_TYPE>0</EPHEMERIS_TYPE><CLASSIFICATION_TYPE>U</CLASSIFICATION_TYPE><NORAD_CAT_ID>25119</NORAD_CAT_ID><ELEMENT_SET_NO>999</ELEMENT_SET_NO><REV_AT_EPOCH>39037</REV_AT_EPOCH><BSTAR>.88492E-3</BSTAR><MEAN_MOTION_DOT>.2847E-4</MEAN_MOTION_DOT><MEAN_MOTION_DDOT>0</MEAN_MOTION_DDOT></tleParameters></data></segment></body></omm>
<omm id="CCSDS_OMM_VERS" version="2.0">
<header><CREATION_DATE/><ORIGINATOR/></header><body><segment><metadata><OBJECT_NAME>ORBCOMM FM03</OBJECT_NAME><OBJECT_ID>1998-007B</OBJECT_ID><CENTER_NAME>EARTH</CENTER_NAME><REF_FRAME>TEME</REF_FRAME><TIME_SYSTEM>UTC</TIME_SYSTEM><MEAN_ELEMENT_THEORY>SGP4</MEAN_ELEMENT_THEORY></metadata><data><meanElements><EPOCH>2024-06-28T14:51:16.409088</EPOCH><MEAN_MOTION>14.32359572</MEAN_MOTION><ECCENTRICITY>.0045811</ECCENTRICITY><INCLINATION>107.9702</INCLINATION><RA_OF_ASC_NODE>130.2779</RA_OF_ASC_NODE><ARG_OF_PERICENTER>147.3082</ARG_OF_PERICENTER><MEAN_ANOMALY>213.0906</MEAN_ANOMALY></meanElements><tleParameters><EPHEMERIS_TYPE>0</EPHEMERIS_TYPE><CLASSIFICATION_TYPE>U</CLASSIFICATION_TYPE><NORAD_CAT_ID>25158</NORAD_CAT_ID><ELEMENT_SET_NO>999</ELEMENT_SET_NO><REV_AT_EPOCH>37337</REV_AT_EPOCH><BSTAR>.77192E-3</BSTAR><MEAN_MOTION_DOT>.1983E-4</MEAN_MOTION_DOT><MEAN_MOTION_DDOT>0</MEAN_MOTION_DDOT></tleParameters></data></segment></body></omm>
<omm id="CCSDS_OMM_VERS" version="2.0">
<header><CREATION_DATE/><ORIGINATOR/></header><body><segment><metadata><OBJECT_NAME>ORBCOMM FM04</OBJECT_NAME><OBJECT_ID>1998-007C</OBJECT_ID><CENTER_NAME>EARTH</CENTER_NAME><REF_FRAME>TEME</REF_FRAME><TIME_SYSTEM>UTC</TIME_SYSTEM><MEAN_ELEMENT_THEORY>SGP4</MEAN_ELEMENT_THEORY></metadata><data><meanElements><EPOCH>2024-06-28T14:21:43.003296</EPOCH><MEAN_MOTION>14.32632794</MEAN_MOTION><ECCENTRICITY>.0041381</ECCENTRICITY><INCLINATION>107.9688</INCLINATION><RA_OF_ASC_NODE>133.2066</RA_OF_ASC_NODE><ARG_OF_PERICENTER>145.1155</ARG_OF_PERICENTER><MEAN_ANOMALY>215.2708</MEAN_ANOMALY></meanElements><tleParameters><EPHEMERIS_TYPE>0</EPHEMERIS_TYPE><CLASSIFICATION_TYPE>U</CLASSIFICATION_TYPE><NORAD_CAT_ID>25159</NORAD_CAT_ID><ELEMENT_SET_NO>999</ELEMENT_SET_NO><REV_AT_EPOCH>37354</REV_AT_EPOCH><BSTAR>.86865E-3</BSTAR><MEAN_MOTION_DOT>.2256E-4</MEAN_MOTION_DOT><MEAN_MOTION_DDOT>0</MEAN_MOTION_DDOT></tleParameters></data></segment></body></omm>
<omm id="CCSDS_OMM_VERS" version="2.0">
<header><CREATION_DATE/><ORIGINATOR/></header><body><segment><metadata><OBJECT_NAME>ORBCOMM FM17</OBJECT_NAME><OBJECT_ID>1998-046A</OBJECT_ID><CENTER_NAME>EARTH</CENTER_NAME><REF_FRAME>TEME</REF_FRAME><TIME_SYSTEM>UTC</TIME_SYSTEM><MEAN_ELEMENT_THEORY>SGP4</MEAN_ELEMENT_THEORY></metadata><data><meanElements><EPOCH>2024-06-28T13:31:45.325920</EPOCH><MEAN_MOTION>14.33321911</MEAN_MOTION><ECCENTRICITY>.0002742</ECCENTRICITY><INCLINATION>44.9942</INCLINATION><RA_OF_ASC_NODE>124.3922</RA_OF_ASC_NODE><ARG_OF_PERICENTER>277.4309</ARG_OF_PERICENTER><MEAN_ANOMALY>82.6226</MEAN_ANOMALY></meanElements><tleParameters><EPHEMERIS_TYPE>0</EPHEMERIS_TYPE><CLASSIFICATION_TYPE>U</CLASSIFICATION_TYPE><NORAD_CAT_ID>25413</NORAD_CAT_ID><ELEMENT_SET_NO>999</ELEMENT_SET_NO><REV_AT_EPOCH>35240</REV_AT_EPOCH><BSTAR>.68885E-3</BSTAR><MEAN_MOTION_DOT>.1774E-4</MEAN_MOTION_DOT><MEAN_MOTION_DDOT>0</MEAN_MOTION_DDOT></tleParameters></data></segment></body></omm>
<omm id="CCSDS_OMM_VERS" version="2.0">
<header><CREATION_DATE/><ORIGINATOR/></header><body><segment><metadata><OBJECT_NAME>ORBCOMM FM18</OBJECT_NAME><OBJECT_ID>1998-046B</OBJECT_ID><CENTER_NAME>EARTH</CENTER_NAME><REF_FRAME>TEME</REF_FRAME><TIME_SYSTEM>UTC</TIME_SYSTEM><MEAN_ELEMENT_THEORY>SGP4</MEAN_ELEMENT_THEORY></metadata><data><meanElements><EPOCH>2024-06-28T07:45:50.889888</EPOCH><MEAN_MOTION>14.36143607</MEAN_MOTION><ECCENTRICITY>.000379</ECCENTRICITY><INCLINATION>44.9952</INCLINATION><RA_OF_ASC_NODE>51.5682</RA_OF_ASC_NODE><ARG_OF_PERICENTER>304.6140</ARG_OF_PERICENTER><MEAN_ANOMALY>55.4350</MEAN_ANOMALY></meanElements><tleParameters><EPHEMERIS_TYPE>0</EPHEMERIS_TYPE><CLASSIFICATION_TYPE>U</CLASSIFICATION_TYPE><NORAD_CAT_ID>25414</NORAD_CAT_ID><ELEMENT_SET_NO>999</ELEMENT_SET_NO><REV_AT_EPOCH>35333</REV_AT_EPOCH><BSTAR>.78614E-3</BSTAR><MEAN_MOTION_DOT>.2171E-4</MEAN_MOTION_DOT><MEAN_MOTION_DDOT>0</MEAN_MOTION_DDOT></tleParameters></data></segment></body></omm>
<omm id="CCSDS_OMM_VERS" version="2.0">
<header><CREATION_DATE/><ORIGINATOR/></header><body><segment><metadata><OBJECT_NAME>ORBCOMM FM19</OBJECT_NAME><OBJECT_ID>1998-046C</OBJECT_ID><CENTER_NAME>EARTH</CENTER_NAME><REF_FRAME>TEME</REF_FRAME><TIME_SYSTEM>UTC</TIME_SYSTEM><MEAN_ELEMENT_THEORY>SGP4</MEAN_ELEMENT_THEORY></metadata><data><meanElements><EPOCH>2024-06-27T22:48:15.263424</EPOCH><MEAN_MOTION>14.35975622</MEAN_MOTION><ECCENTRICITY>.0002575</ECCENTRICITY><INCLINATION>44.9962</INCLINATION><RA_OF_ASC_NODE>54.8098</RA_OF_ASC_NODE><ARG_OF_PERICENTER>296.1942</ARG_OF_PERICENTER><MEAN_ANOMALY>78.3166</MEAN_ANOMALY></meanElements><tleParameters><EPHEMERIS_TYPE>0</EPHEMERIS_TYPE><CLASSIFICATION_TYPE>U</CLASSIFICATION_TYPE><NORAD_CAT_ID>25415</NORAD_CAT_ID><ELEMENT_SET_NO>999</ELEMENT_SET_NO><REV_AT_EPOCH>35324</REV_AT_EPOCH><BSTAR>.72414E-3</BSTAR><MEAN_MOTION_DOT>.1981E-4</MEAN_MOTION_DOT><MEAN_MOTION_DDOT>0</MEAN_MOTION_DDOT></tleParameters></data></segment></body></omm>

</ndm>
