ORBCOMM FM05            
1 25117U 97084F   24180.55946849  .00002284  00000+0  71819-3 0  9993
2 25117  45.0160 262.3384 0004713 251.6677 108.3661 14.42990927389474
ORBCOMM FM06            
1 25118U 97084G   24180.51913072  .00003141  00000+0  96988-3 0  9999
2 25118  45.0143 262.6736 0004019 258.6979 115.8002 14.43066098390389
ORBCOMM FM07            
1 25119U 97084H   24180.51060522  .00002847  00000+0  88492-3 0  9996
2 25119  45.0139 263.2819 0005420 244.6863 115.3426 14.42967799390379
ORBCOMM FM03            
1 25158U 98007B   24180.61893992  .00001983  00000+0  77192-3 0  9996
2 25158 107.9702 130.2779 0045811 147.3082 213.0906 14.32359572373377
ORBCOMM FM04            
1 25159U 98007C   24180.59841439  .00002256  00000+0  86865-3 0  9994
2 25159 107.9688 133.2066 0041381 145.1155 215.2708 14.32632794373541
ORBCOMM FM17            
1 25413U 98046A   24180.56371905  .00001774  00000+0  68885-3 0  9999
2 25413  44.9942 124.3922 0002742 277.4309  82.6226 14.33321911352407
ORBCOMM FM18            
1 25414U 98046B   24180.32350567  .00002171  00000+0  78614-3 0  9998
2 25414  44.9952  51.5682 0003790 304.6140  55.4350 14.36143607353339
ORBCOMM FM19            
1 25415U 98046C   24179.95017666  .00001981  00000+0  72414-3 0  9996
2 25415  44.9962  54.8098 0002575 296.1942  78.3166 14.35975622353241
